ONEWEB-0018             
1 45434U 20020L   25167.52748997 -.00000232  00000+0 -68968-3 0  9994
2 45434  87.8845  93.9477 0001990  80.1651 279.9701 13.11419290254705
ONEWEB-0083             
1 45435U 20020M   25167.51729537 -.00000590  00000+0 -17002-2 0  9992
2 45435  87.8844  93.9342 0002040  77.3367 282.7988 13.11417553254748
ONEWEB-0095             
1 45436U 20020N   25167.50896851 -.00000339  00000+0 -99342-3 0  9995
2 45436  87.8842  93.9620 0002303  60.3737 299.7620 13.11415152254756
ONEWEB-0092             
1 45437U 20020P   25167.55716595  .00000621  00000+0  17176-2 0  9993
2 45437  87.8842  93.9402 0002028  70.6633 289.4714 13.11416296254860
ONEWEB-0085             
1 45438U 20020Q   25167.51025585 -.00000426  00000+0 -12383-2 0  9992
2 45438  87.8845  93.9614 0002175  79.4955 280.6418 13.11466587254756
ONEWEB-0096             
1 45439U 20020R   25167.51899140 -.00000410  00000+0 -11916-2 0  9993
2 45439  87.8842  93.9250 0001875  83.0400 277.0941 13.11418016254735
ONEWEB-0037             
1 45440U 20020S   25167.49949596 -.00000069  00000+0 -23016-3 0  9998
2 45440  87.8837  93.8911 0002006  75.7566 284.3785 13.11413996254764
ONEWEB-0042             
1 45441U 20020T   25167.50868215 -.00000395  00000+0 -11494-2 0  9997
2 45441  87.8842  93.9377 0001868  78.9110 281.2228 13.11414649254745
